ISS (ZARYA)             
1 25544U 98067A   25362.21118694  .00015781  00000+0  28493-3 0  9990
2 25544  51.6320  65.8529 0003260 313.9289  46.1430 15.49897702545251
CSS (TIANHE)            
1 48274U 21035A   25362.21234419  .00022860  00000+0  27982-3 0  9998
2 48274  41.4674 282.7308 0008952 165.5438 194.5658 15.59793935266445
ISS (NAUKA)             
1 49044U 21066A   25362.21118694  .00015781  00000+0  28493-3 0  9996
2 49044  51.6320  65.8529 0003260 313.9289  46.1430 15.49897702230444
FREGAT DEB              
1 49271U 11037PF  25360.49630089  .00006366  00000+0  14302-1 0  9991
2 49271  51.6519 158.7680 0864537 253.7501  96.6634 12.34586922203633
CSS (WENTIAN)           
1 53239U 22085A   25362.21234419  .00022860  00000+0  27982-3 0  9991
2 53239  41.4674 282.7308 0008952 165.5438 194.5658 15.59793935173843
CSS (MENGTIAN)          
1 54216U 22143A   25362.21234419  .00022860  00000+0  27982-3 0  9992
2 54216  41.4674 282.7308 0008952 165.5438 194.5658 15.59793935158640
SHENZHOU-20 (SZ-20)     
1 63632U 25082A   25362.21234419  .00022860  00000+0  27982-3 0  9999
2 63632  41.4674 282.7308 0008952 165.5438 194.5658 15.59793935255303
PROGRESS-MS 31          
1 64751U 25146A   25362.21118694  .00015781  00000+0  28493-3 0  9991
2 64751  51.6320  65.8529 0003260 313.9289  46.1430 15.49897702  6751
TIANZHOU-9              
1 64786U 25149A   25362.21234419  .00022860  00000+0  27982-3 0  9994
2 64786  41.4674 282.7308 0008952 165.5438 194.5658 15.59793935255304
CREW DRAGON 11          
1 65077U 25166A   25362.21118694  .00015781  00000+0  28493-3 0  9995
2 65077  51.6320  65.8529 0003260 313.9289  46.1430 15.49897702  2142
DRAGON CRS-33           
1 65304U 25186A   25362.21118694  .00015781  00000+0  28493-3 0  9990
2 65304  51.6320  65.8529 0003260 313.9289  46.1430 15.49897702   110
PROGRESS-MS 32          
1 65586U 25204A   25362.21118694  .00015781  00000+0  28493-3 0  9993
2 65586  51.6320  65.8529 0003260 313.9289  46.1430 15.49897702   279
