CCSDS_OMM_VERS = 2.0
CREATION_DATE  = 
ORIGINATOR     = 

OBJECT_NAME    = ISS (ZARYA)
OBJECT_ID      = 1998-067A
CENTER_NAME    = EARTH
REF_FRAME      = TEME
TIME_SYSTEM    = UTC
MEAN_ELEMENT_THEORY = SGP/SGP4

EPOCH          = 2025-12-28T05:04:06.551616
MEAN_MOTION    = 15.49897702
ECCENTRICITY   = .000326
INCLINATION    = 51.6320
RA_OF_ASC_NODE = 65.8529
ARG_OF_PERICENTER = 313.9289
MEAN_ANOMALY   = 46.1430

EPHEMERIS_TYPE = 0
CLASSIFICATION_TYPE = U
NORAD_CAT_ID   = 25544
ELEMENT_SET_NO = 999
REV_AT_EPOCH   = 54525
BSTAR          = .28493376E-3
MEAN_MOTION_DOT = .15781E-3
MEAN_MOTION_DDOT = 0

CCSDS_OMM_VERS = 2.0
CREATION_DATE  = 
ORIGINATOR     = 

OBJECT_NAME    = CSS (TIANHE)
OBJECT_ID      = 2021-035A
CENTER_NAME    = EARTH
REF_FRAME      = TEME
TIME_SYSTEM    = UTC
MEAN_ELEMENT_THEORY = SGP/SGP4

EPOCH          = 2025-12-28T05:05:46.538016
MEAN_MOTION    = 15.59793935
ECCENTRICITY   = .00089524
INCLINATION    = 41.4674
RA_OF_ASC_NODE = 282.7308
ARG_OF_PERICENTER = 165.5438
MEAN_ANOMALY   = 194.5658

EPHEMERIS_TYPE = 0
CLASSIFICATION_TYPE = U
NORAD_CAT_ID   = 48274
ELEMENT_SET_NO = 999
REV_AT_EPOCH   = 26644
BSTAR          = .27982381E-3
MEAN_MOTION_DOT = .2286E-3
MEAN_MOTION_DDOT = 0

CCSDS_OMM_VERS = 2.0
CREATION_DATE  = 
ORIGINATOR     = 

OBJECT_NAME    = ISS (NAUKA)
OBJECT_ID      = 2021-066A
CENTER_NAME    = EARTH
REF_FRAME      = TEME
TIME_SYSTEM    = UTC
MEAN_ELEMENT_THEORY = SGP/SGP4

EPOCH          = 2025-12-28T05:04:06.551616
MEAN_MOTION    = 15.49897702
ECCENTRICITY   = .000326
INCLINATION    = 51.6320
RA_OF_ASC_NODE = 65.8529
ARG_OF_PERICENTER = 313.9289
MEAN_ANOMALY   = 46.1430

EPHEMERIS_TYPE = 0
CLASSIFICATION_TYPE = U
NORAD_CAT_ID   = 49044
ELEMENT_SET_NO = 999
REV_AT_EPOCH   = 23044
BSTAR          = .28493376E-3
MEAN_MOTION_DOT = .15781E-3
MEAN_MOTION_DDOT = 0

CCSDS_OMM_VERS = 2.0
CREATION_DATE  = 
ORIGINATOR     = 

OBJECT_NAME    = FREGAT DEB
OBJECT_ID      = 2011-037PF
CENTER_NAME    = EARTH
REF_FRAME      = TEME
TIME_SYSTEM    = UTC
MEAN_ELEMENT_THEORY = SGP/SGP4

EPOCH          = 2025-12-26T11:54:40.396896
MEAN_MOTION    = 12.34586922
ECCENTRICITY   = .0864537
INCLINATION    = 51.6519
RA_OF_ASC_NODE = 158.7680
ARG_OF_PERICENTER = 253.7501
MEAN_ANOMALY   = 96.6634

EPHEMERIS_TYPE = 0
CLASSIFICATION_TYPE = U
NORAD_CAT_ID   = 49271
ELEMENT_SET_NO = 999
REV_AT_EPOCH   = 20363
BSTAR          = .14302E-1
MEAN_MOTION_DOT = .6366E-4
MEAN_MOTION_DDOT = 0

CCSDS_OMM_VERS = 2.0
CREATION_DATE  = 
ORIGINATOR     = 

OBJECT_NAME    = CSS (WENTIAN)
OBJECT_ID      = 2022-085A
CENTER_NAME    = EARTH
REF_FRAME      = TEME
TIME_SYSTEM    = UTC
MEAN_ELEMENT_THEORY = SGP/SGP4

EPOCH          = 2025-12-28T05:05:46.538016
MEAN_MOTION    = 15.59793935
ECCENTRICITY   = .00089524
INCLINATION    = 41.4674
RA_OF_ASC_NODE = 282.7308
ARG_OF_PERICENTER = 165.5438
MEAN_ANOMALY   = 194.5658

EPHEMERIS_TYPE = 0
CLASSIFICATION_TYPE = U
NORAD_CAT_ID   = 53239
ELEMENT_SET_NO = 999
REV_AT_EPOCH   = 17384
BSTAR          = .27982381E-3
MEAN_MOTION_DOT = .2286E-3
MEAN_MOTION_DDOT = 0

CCSDS_OMM_VERS = 2.0
CREATION_DATE  = 
ORIGINATOR     = 

OBJECT_NAME    = CSS (MENGTIAN)
OBJECT_ID      = 2022-143A
CENTER_NAME    = EARTH
REF_FRAME      = TEME
TIME_SYSTEM    = UTC
MEAN_ELEMENT_THEORY = SGP/SGP4

EPOCH          = 2025-12-28T05:05:46.538016
MEAN_MOTION    = 15.59793935
ECCENTRICITY   = .00089524
INCLINATION    = 41.4674
RA_OF_ASC_NODE = 282.7308
ARG_OF_PERICENTER = 165.5438
MEAN_ANOMALY   = 194.5658

EPHEMERIS_TYPE = 0
CLASSIFICATION_TYPE = U
NORAD_CAT_ID   = 54216
ELEMENT_SET_NO = 999
REV_AT_EPOCH   = 15864
BSTAR          = .27982381E-3
MEAN_MOTION_DOT = .2286E-3
MEAN_MOTION_DDOT = 0

CCSDS_OMM_VERS = 2.0
CREATION_DATE  = 
ORIGINATOR     = 

OBJECT_NAME    = SHENZHOU-20 (SZ-20)
OBJECT_ID      = 2025-082A
CENTER_NAME    = EARTH
REF_FRAME      = TEME
TIME_SYSTEM    = UTC
MEAN_ELEMENT_THEORY = SGP/SGP4

EPOCH          = 2025-12-28T05:05:46.538016
MEAN_MOTION    = 15.59793935
ECCENTRICITY   = .00089524
INCLINATION    = 41.4674
RA_OF_ASC_NODE = 282.7308
ARG_OF_PERICENTER = 165.5438
MEAN_ANOMALY   = 194.5658

EPHEMERIS_TYPE = 0
CLASSIFICATION_TYPE = U
NORAD_CAT_ID   = 63632
ELEMENT_SET_NO = 999
REV_AT_EPOCH   = 25530
BSTAR          = .27982381E-3
MEAN_MOTION_DOT = .2286E-3
MEAN_MOTION_DDOT = 0

CCSDS_OMM_VERS = 2.0
CREATION_DATE  = 
ORIGINATOR     = 

OBJECT_NAME    = PROGRESS-MS 31
OBJECT_ID      = 2025-146A
CENTER_NAME    = EARTH
REF_FRAME      = TEME
TIME_SYSTEM    = UTC
MEAN_ELEMENT_THEORY = SGP/SGP4

EPOCH          = 2025-12-28T05:04:06.551616
MEAN_MOTION    = 15.49897702
ECCENTRICITY   = .000326
INCLINATION    = 51.6320
RA_OF_ASC_NODE = 65.8529
ARG_OF_PERICENTER = 313.9289
MEAN_ANOMALY   = 46.1430

EPHEMERIS_TYPE = 0
CLASSIFICATION_TYPE = U
NORAD_CAT_ID   = 64751
ELEMENT_SET_NO = 999
REV_AT_EPOCH   = 675
BSTAR          = .28493376E-3
MEAN_MOTION_DOT = .15781E-3
MEAN_MOTION_DDOT = 0

CCSDS_OMM_VERS = 2.0
CREATION_DATE  = 
ORIGINATOR     = 

OBJECT_NAME    = TIANZHOU-9
OBJECT_ID      = 2025-149A
CENTER_NAME    = EARTH
REF_FRAME      = TEME
TIME_SYSTEM    = UTC
MEAN_ELEMENT_THEORY = SGP/SGP4

EPOCH          = 2025-12-28T05:05:46.538016
MEAN_MOTION    = 15.59793935
ECCENTRICITY   = .00089524
INCLINATION    = 41.4674
RA_OF_ASC_NODE = 282.7308
ARG_OF_PERICENTER = 165.5438
MEAN_ANOMALY   = 194.5658

EPHEMERIS_TYPE = 0
CLASSIFICATION_TYPE = U
NORAD_CAT_ID   = 64786
ELEMENT_SET_NO = 999
REV_AT_EPOCH   = 25530
BSTAR          = .27982381E-3
MEAN_MOTION_DOT = .2286E-3
MEAN_MOTION_DDOT = 0

CCSDS_OMM_VERS = 2.0
CREATION_DATE  = 
ORIGINATOR     = 

OBJECT_NAME    = CREW DRAGON 11
OBJECT_ID      = 2025-166A
CENTER_NAME    = EARTH
REF_FRAME      = TEME
TIME_SYSTEM    = UTC
MEAN_ELEMENT_THEORY = SGP/SGP4

EPOCH          = 2025-12-28T05:04:06.551616
MEAN_MOTION    = 15.49897702
ECCENTRICITY   = .000326
INCLINATION    = 51.6320
RA_OF_ASC_NODE = 65.8529
ARG_OF_PERICENTER = 313.9289
MEAN_ANOMALY   = 46.1430

EPHEMERIS_TYPE = 0
CLASSIFICATION_TYPE = U
NORAD_CAT_ID   = 65077
ELEMENT_SET_NO = 999
REV_AT_EPOCH   = 214
BSTAR          = .28493376E-3
MEAN_MOTION_DOT = .15781E-3
MEAN_MOTION_DDOT = 0

CCSDS_OMM_VERS = 2.0
CREATION_DATE  = 
ORIGINATOR     = 

OBJECT_NAME    = DRAGON CRS-33
OBJECT_ID      = 2025-186A
CENTER_NAME    = EARTH
REF_FRAME      = TEME
TIME_SYSTEM    = UTC
MEAN_ELEMENT_THEORY = SGP/SGP4

EPOCH          = 2025-12-28T05:04:06.551616
MEAN_MOTION    = 15.49897702
ECCENTRICITY   = .000326
INCLINATION    = 51.6320
RA_OF_ASC_NODE = 65.8529
ARG_OF_PERICENTER = 313.9289
MEAN_ANOMALY   = 46.1430

EPHEMERIS_TYPE = 0
CLASSIFICATION_TYPE = U
NORAD_CAT_ID   = 65304
ELEMENT_SET_NO = 999
REV_AT_EPOCH   = 11
BSTAR          = .28493376E-3
MEAN_MOTION_DOT = .15781E-3
MEAN_MOTION_DDOT = 0

CCSDS_OMM_VERS = 2.0
CREATION_DATE  = 
ORIGINATOR     = 

OBJECT_NAME    = PROGRESS-MS 32
OBJECT_ID      = 2025-204A
CENTER_NAME    = EARTH
REF_FRAME      = TEME
TIME_SYSTEM    = UTC
MEAN_ELEMENT_THEORY = SGP/SGP4

EPOCH          = 2025-12-28T05:04:06.551616
MEAN_MOTION    = 15.49897702
ECCENTRICITY   = .000326
INCLINATION    = 51.6320
RA_OF_ASC_NODE = 65.8529
ARG_OF_PERICENTER = 313.9289
MEAN_ANOMALY   = 46.1430

EPHEMERIS_TYPE = 0
CLASSIFICATION_TYPE = U
NORAD_CAT_ID   = 65586
ELEMENT_SET_NO = 999
REV_AT_EPOCH   = 27
BSTAR          = .28493376E-3
MEAN_MOTION_DOT = .15781E-3
MEAN_MOTION_DDOT = 0

